CYGNUS NG-23            
1 65616U 25208A   25365.24252991  .00014700  00000+0  27461-3 0  9990
2 65616  51.6330  50.8452 0007496 322.9593  37.0877 15.48966283   225
DRAGONFLY               
1 65729U 98067XH  25365.38943485  .00319553  00000+0  16557-2 0  9995
2 65729  51.6248  39.7890 0008755  26.0213 334.1226 15.79537567 16106
1998-067XK              
1 65731U 98067XK  25365.34922756  .00148249  00000+0  12006-2 0  9999
2 65731  51.6292  42.5594 0005258   0.6841 359.4162 15.69782489 16069
RSP-03                  
1 65732U 98067XL  25365.50295797  .00212547  00000+0  14157-2 0  9998
2 65732  51.6266  40.5662 0006366   8.0216 352.0884 15.74188922 16118
GHS-01                  
1 65733U 98067XM  25364.34851925  .00460338  00000+0  18874-2 0  9994
2 65733  51.6270  44.0965 0009807  24.2416 335.9046 15.84202469 15960
YOTSUBA-KULOVER         
1 65941U 98067XN  25365.28144667  .00097371  00000+0  10776-2 0  9993
2 65941  51.6298  46.6101 0003224  30.2152 329.9027 15.62206285 12754
BOTAN                   
1 65942U 98067XP  25365.30155815  .00163562  00000+0  14639-2 0  9992
2 65942  51.6280  45.2399 0004189  18.6409 341.4740 15.67293669 12776
E-KAGAKU-1              
1 65943U 98067XQ  25365.08953584  .00105555  00000+0  11677-2 0  9994
2 65943  51.6301  47.5837 0001855  17.3955 342.7102 15.62184482 12720
HRC MONOBLOCK CAMERA    
1 66052U 98067XR  25365.41935115  .00046648  00000+0  67235-3 0  9992
2 66052  51.6311  48.2779 0001593 284.7736  75.3079 15.55532276 11745
HTV-X1                  
1 66174U 25241A   25365.24252991  .00014700  00000+0  27461-3 0  9997
2 66174  51.6330  50.8452 0007496 322.9593  37.0877 15.48966283   517
SZ-21 MODULE            
1 66515U 25246C   25365.06945746  .00040549  00000+0  42604-3 0  9994
2 66515  41.4763 264.1497 0003033   3.4177 356.6683 15.63556813  7315
SHENZHOU-22             
1 66645U 25272A   25365.09344151  .00027123  00000+0  32908-3 0  9992
2 66645  41.4668 265.2206 0009747 186.8831 173.1875 15.59942629265987
